$$SOE
2460147.500000000, A.D. 2023-Jul-22 00:00:00.0000, 3.724391576956401E+08, 4.156352415544292E+07, 5.640270898488471E+06,
2460154.500000000, A.D. 2023-Jul-29 00:00:00.0000, 3.705640383004230E+08, 5.272590225401586E+07, 6.252559324109659E+06,
2460161.500000000, A.D. 2023-Aug-05 00:00:00.0000, 3.683461238869442E+08, 6.383965609428382E+07, 6.859050587974809E+06,
2460168.500000000, A.D. 2023-Aug-12 00:00:00.0000, 3.657862409370220E+08, 7.489429134265956E+07, 7.459160043653361E+06,
2460175.500000000, A.D. 2023-Aug-19 00:00:00.0000, 3.628855364334736E+08, 8.587929134676678E+07, 8.052304632347193E+06,
2460182.500000000, A.D. 2023-Aug-26 00:00:00.0000, 3.596454815287805E+08, 9.678412667151789E+07, 8.637903458993450E+06,
2460189.500000000, A.D. 2023-Sep-02 00:00:00.0000, 3.560678749441103E+08, 1.075982648679098E+08, 9.215378379484490E+06,
2460196.500000000, A.D. 2023-Sep-09 00:00:00.0000, 3.521548461168168E+08, 1.183111804310567E+08, 9.784154592266463E+06,
2460203.500000000, A.D. 2023-Sep-16 00:00:00.0000, 3.479088582460439E+08, 1.289123648841920E+08, 1.034366121388377E+07,
2460210.500000000, A.D. 2023-Sep-23 00:00:00.0000, 3.433327116310454E+08, 1.393913372656148E+08, 1.089333182273593E+07,
2460217.500000000, A.D. 2023-Sep-30 00:00:00.0000, 3.384295469328927E+08, 1.497376561975409E+08, 1.143260509775149E+07,
2460224.500000000, A.D. 2023-Oct-07 00:00:00.0000, 3.332028459752157E+08, 1.599409329891014E+08, 1.196092572263040E+07,
2460231.500000000, A.D. 2023-Oct-14 00:00:00.0000, 3.276564311049443E+08, 1.699908424570034E+08, 1.247774518954850E+07,
2460238.500000000, A.D. 2023-Oct-21 00:00:00.0000, 3.217944663230355E+08, 1.798771330557543E+08, 1.298252233649032E+07,
2460245.500000000, A.D. 2023-Oct-28 00:00:00.0000, 3.156214587388555E+08, 1.895896385646539E+08, 1.347472393293668E+07,
2460252.500000000, A.D. 2023-Nov-04 00:00:00.0000, 3.091422590777644E+08, 1.991182905467348E+08, 1.395382536500835E+07,
2460259.500000000, A.D. 2023-Nov-11 00:00:00.0000, 3.023620613987309E+08, 2.084531309631133E+08, 1.441931135367073E+07,
2460266.500000000, A.D. 2023-Nov-18 00:00:00.0000, 2.952864022202313E+08, 2.175843248609105E+08, 1.487067667923942E+07,
2460273.500000000, A.D. 2023-Nov-25 00:00:00.0000, 2.879211591072156E+08, 2.265021731390522E+08, 1.530742690599692E+07,
2460280.500000000, A.D. 2023-Dec-02 00:00:00.0000, 2.802725487292488E+08, 2.351971253608335E+08, 1.572907910215750E+07,
2460287.500000000, A.D. 2023-Dec-09 00:00:00.0000, 2.723471244512830E+08, 2.436597925321742E+08, 1.613516254198442E+07,
2460294.500000000, A.D. 2023-Dec-16 00:00:00.0000, 2.641517737299711E+08, 2.518809598338372E+08, 1.652521936338176E+07,
2460301.500000000, A.D. 2023-Dec-23 00:00:00.0000, 2.556937156511934E+08, 2.598515999671077E+08, 1.689880520337009E+07,
2460308.500000000, A.D. 2023-Dec-30 00:00:00.0000, 2.469804972524841E+08, 2.675628881279368E+08, 1.725549001749432E+07,
2460315.500000000, A.D. 2024-Jan-06 00:00:00.0000, 2.380199868382146E+08, 2.750062162179870E+08, 1.759485905098778E+07,
2460322.500000000, A.D. 2024-Jan-13 00:00:00.0000, 2.288203674519251E+08, 2.821732044603249E+08, 1.791651352187103E+07,
2460329.500000000, A.D. 2024-Jan-20 00:00:00.0000, 2.193901317235301E+08, 2.890557134695007E+08, 1.822007115322040E+07,
2460336.500000000, A.D. 2024-Jan-27 00:00:00.0000, 2.097380760518570E+08, 2.956458573903514E+08, 1.850516679131287E+07,
2460343.500000000, A.D. 2024-Feb-03 00:00:00.0000, 1.998732936859630E+08, 3.019360171211508E+08, 1.877145306925903E+07,
2460350.500000000, A.D. 2024-Feb-10 00:00:00.0000, 1.898051669780090E+08, 3.079188532938689E+08, 1.901860106479068E+07,
2460357.500000000, A.D. 2024-Feb-17 00:00:00.0000, 1.795433589442376E+08, 3.135873189822377E+08, 1.924630093800282E+07,
2460364.500000000, A.D. 2024-Feb-24 00:00:00.0000, 1.690978041700161E+08, 3.189346721143225E+08, 1.945426254483767E+07,
2460371.500000000, A.D. 2024-Mar-02 00:00:00.0000, 1.584786990905332E+08, 3.239544875184248E+08, 1.964221601888135E+07,
2460378.500000000, A.D. 2024-Mar-09 00:00:00.0000, 1.476964917904468E+08, 3.286406685007687E+08, 1.980991230160168E+07,
2460385.500000000, A.D. 2024-Mar-16 00:00:00.0000, 1.367618717250998E+08, 3.329874581146249E+08, 1.995712359903856E+07,
2460392.500000000, A.D. 2024-Mar-23 00:00:00.0000, 1.256857592719324E+08, 3.369894511929455E+08, 2.008364386308834E+07,
2460399.500000000, A.D. 2024-Mar-30 00:00:00.0000, 1.144792928855078E+08, 3.406416070743316E+08, 2.018928949807854E+07,
2460406.500000000, A.D. 2024-Apr-06 00:00:00.0000, 1.031538141214119E+08, 3.439392596114452E+08, 2.027389999206699E+07,
2460413.500000000, A.D. 2024-Apr-13 00:00:00.0000, 9.172085409699470E+07, 3.468781252684607E+08, 2.033733821464360E+07,
2460420.500000000, A.D. 2024-Apr-20 00:00:00.0000, 8.019212046263842E+07, 3.494543119496620E+08, 2.037949068525149E+07,
2460427.500000000, A.D. 2024-Apr-27 00:00:00.0000, 6.857948338997434E+07, 3.516643279584784E+08, 2.040026790319422E+07,
2460434.500000000, A.D. 2024-May-04 00:00:00.0000, 5.689496068959045E+07, 3.535050903481817E+08, 2.039960467224213E+07,
2460441.500000000, A.D. 2024-May-11 00:00:00.0000, 4.515070232464213E+07, 3.549739325301670E+08, 2.037746038833216E+07,
2460448.500000000, A.D. 2024-May-18 00:00:00.0000, 3.335897443336923E+07, 3.560686111313080E+08, 2.033381928343023E+07,
2460455.500000000, A.D. 2024-May-25 00:00:00.0000, 2.153214291906511E+07, 3.567873120653508E+08, 2.026869062168723E+07,
2460462.500000000, A.D. 2024-Jun-01 00:00:00.0000, 9.682656704280268E+06, 3.571286557350990E+08, 2.018210883678819E+07,
2460469.500000000, A.D. 2024-Jun-08 00:00:00.0000, -2.176969064133084E+06, 3.570917013179694E+08, 2.007413358507001E+07,
2460476.500000000, A.D. 2024-Jun-15 00:00:00.0000, -1.403416941664294E+07, 3.566759506564195E+08, 1.994484972119853E+07,
2460483.500000000, A.D. 2024-Jun-22 00:00:00.0000, -2.587634652884085E+07, 3.558813529059079E+08, 1.979436738322698E+07,
2460490.500000000, A.D. 2024-Jun-29 00:00:00.0000, -3.769088932929928E+07, 3.547083080920764E+08, 1.962282223111938E+07,
2460497.500000000, A.D. 2024-Jul-06 00:00:00.0000, -4.946519306410595E+07, 3.531576670772637E+08, 1.943037539392945E+07,
2460504.500000000, A.D. 2024-Jul-13 00:00:00.0000, -6.118667683393819E+07, 3.512307307548362E+08, 1.921721317914422E+07,
2460511.500000000, A.D. 2024-Jul-20 00:00:00.0000, -7.284280104189561E+07, 3.489292496237143E+08, 1.898354682113881E+07,
2460518.500000000, A.D. 2024-Jul-27 00:00:00.0000, -8.442108535599978E+07, 3.462554227825266E+08, 1.872961225087334E+07,
2460525.500000000, A.D. 2024-Aug-03 00:00:00.0000, -9.590912686131036E+07, 3.432118959672959E+08, 1.845566983127561E+07,
2460532.500000000, A.D. 2024-Aug-10 00:00:00.0000, -1.072946181841161E+08, 3.398017586284714E+08, 1.816200404271543E+07,
2460539.500000000, A.D. 2024-Aug-17 00:00:00.0000, -1.185653654901858E+08, 3.360285400714937E+08, 1.784892311609648E+07,
2460546.500000000, A.D. 2024-Aug-24 00:00:00.0000, -1.297093062797105E+08, 3.318962046443112E+08, 1.751675860954501E+07,
2460553.500000000, A.D. 2024-Aug-31 00:00:00.0000, -1.407145268147062E+08, 3.274091459196106E+08, 1.716586491370180E+07,
2460560.500000000, A.D. 2024-Sep-07 00:00:00.0000, -1.515692787658596E+08, 3.225721800108305E+08, 1.679661866333285E+07,
2460567.500000000, A.D. 2024-Sep-14 00:00:00.0000, -1.622619949482327E+08, 3.173905390347010E+08, 1.640941813001494E+07,
2460574.500000000, A.D. 2024-Sep-21 00:00:00.0000, -1.727813061310467E+08, 3.118698651565782E+08, 1.600468281699070E+07,
2460581.500000000, A.D. 2024-Sep-28 00:00:00.0000, -1.831160593609637E+08, 3.060162020160378E+08, 1.558285303834562E+07,
2460588.500000000, A.D. 2024-Oct-05 00:00:00.0000, -1.932553340831295E+08, 2.998359835522301E+08, 1.514438914785825E+07,
2460595.500000000, A.D. 2024-Oct-12 00:00:00.0000, -2.031884563861749E+08, 2.933360232368611E+08, 1.468977069636475E+07,
2460602.500000000, A.D. 2024-Oct-19 00:00:00.0000, -2.129050130855956E+08, 2.865235034814683E+08, 1.421949565801238E+07,
2460609.500000000, A.D. 2024-Oct-26 00:00:00.0000, -2.223948656394967E+08, 2.794059644520227E+08, 1.373407966494256E+07,
2460616.500000000, A.D. 2024-Nov-02 00:00:00.0000, -2.316481636049442E+08, 2.719912921770821E+08, 1.323405521701457E+07,
2460623.500000000, A.D. 2024-Nov-09 00:00:00.0000, -2.406553575074716E+08, 2.642877060076152E+08, 1.271997086186497E+07,
2460630.500000000, A.D. 2024-Nov-16 00:00:00.0000, -2.494072110698150E+08, 2.563037454684605E+08, 1.219239034549148E+07,
2460637.500000000, A.D. 2024-Nov-23 00:00:00.0000, -2.578948127276629E+08, 2.480482564928239E+08, 1.165189172759238E+07,
2460644.500000000, A.D. 2024-Nov-30 00:00:00.0000, -2.661095862016075E+08, 2.395303770395530E+08, 1.109906644175664E+07,
2460651.500000000, A.D. 2024-Dec-07 00:00:00.0000, -2.740432996863247E+08, 2.307595225566900E+08, 1.053451829916599E+07,
2460658.500000000, A.D. 2024-Dec-14 00:00:00.0000, -2.816880743305492E+08, 2.217453725587274E+08, 9.958862601770744E+06,
2460665.500000000, A.D. 2024-Dec-21 00:00:00.0000, -2.890363943170768E+08, 2.124978571236074E+08, 9.372725478819475E+06,
2460672.500000000, A.D. 2024-Dec-28 00:00:00.0000, -2.960811165593746E+08, 2.030271403911120E+08, 8.776743026007921E+06,
2460679.500000000, A.D. 2025-Jan-04 00:00:00.0000, -3.028154774042134E+08, 1.933436034798699E+08, 8.171560206407964E+06,
2460686.500000000, A.D. 2025-Jan-11 00:00:00.0000, -3.092330981604274E+08, 1.834578285227991E+08, 7.557829818790548E+06,
2460693.500000000, A.D. 2025-Jan-18 00:00:00.0000, -3.153279903754225E+08, 1.733805829493522E+08, 6.936211544855140E+06,
2460700.500000000, A.D. 2025-Jan-25 00:00:00.0000, -3.210945606187004E+08, 1.631228035862829E+08, 6.307371016904019E+06,
2460707.500000000, A.D. 2025-Feb-01 00:00:00.0000, -3.265276145877023E+08, 1.526955805898716E+08, 5.671978888813280E+06,
2460714.500000000, A.D. 2025-Feb-08 00:00:00.0000, -3.316223604861123E+08, 1.421101412713391E+08, 5.030709909065247E+06,
$$EOE